COMMENT,ORIGINATOR,NORAD_CAT_ID,OBJECT_NAME,OBJECT_TYPE,CLASSIFICATION_TYPE,INTLDES,EPOCH,EPOCH_MICROSECONDS,MEAN_MOTION,ECCENTRICITY,INCLINATION,RA_OF_ASC_NODE,ARG_OF_PERICENTER,MEAN_ANOMALY,EPHEMERIS_TYPE,ELEMENT_SET_NO,REV_AT_EPOCH,BSTAR,MEAN_MOTION_DOT,MEAN_MOTION_DDOT,FILE,TLE_LINE0,TLE_LINE1,TLE_LINE2,OBJECT_ID,OBJECT_NUMBER,SEMIMAJOR_AXIS,PERIOD,APOGEE,PERIGEE,DECAYED
GENERATED VIA SPACETRACK.ORG API,18 SPCS,4084,SL-8 DEB,DEBRIS,U,69070C,2024-06-08 12:24:06,667776,14.46577978,0.0022419,74.0681,253.0914,331.6464,28.3473,0,999,88893,9.307e-05,3.09e-06,0,4339667,0 SL-8 DEB,1 04084U 69070C   24160.51674384  .00000309  00000-0  93070-4 0  9994,2 04084  74.0681 253.0914 0022419 331.6464  28.3473 14.46577978888934,1969-070C,4084,7114.984,99.545,752.8,720.898,0
GENERATED VIA SPACETRACK.ORG API,18 SPCS,4084,SL-8 DEB,DEBRIS,U,69070C,2024-06-08 15:43:16,945536,14.46578052,0.0022427,74.0681,252.8336,331.3674,28.6251,0,999,88893,9.1994e-05,3.06e-06,0,4339757,0 SL-8 DEB,1  4084U 69070C   24160.65505724  .00000306  00000-0  91994-4 0  9990,2  4084  74.0681 252.8336 0022427 331.3674  28.6251 14.46578052888939,1969-070C,4084,7114.984,99.545,752.806,720.892,0
GENERATED VIA SPACETRACK.ORG API,18 SPCS,4084,SL-8 DEB,DEBRIS,U,69070C,2024-06-08 15:43:16,945536,14.46578052,0.0022427,74.0681,252.8336,331.3674,28.6251,0,999,88895,9.1994e-05,3.06e-06,0,4340103,0 SL-8 DEB,1 04084U 69070C   24160.65505724  .00000306  00000-0  91994-4 0  9990,2 04084  74.0681 252.8336 0022427 331.3674  28.6251 14.46578052888951,1969-070C,4084,7114.984,99.545,752.806,720.892,0
GENERATED VIA SPACETRACK.ORG API,18 SPCS,4084,SL-8 DEB,DEBRIS,U,69070C,2024-06-09 08:19:08,330016,14.46578525,0.0022456,74.0681,251.5446,329.9053,30.0813,0,999,88905,9.3446e-05,3.11e-06,0,4340710,0 SL-8 DEB,1 04084U 69070C   24161.34662419  .00000311  00000-0  93446-4 0  9992,2 04084  74.0681 251.5446 0022456 329.9053  30.0813 14.46578525889053,1969-070C,4084,7114.982,99.545,752.825,720.87,0
GENERATED VIA SPACETRACK.ORG API,18 SPCS,4084,SL-8 DEB,DEBRIS,U,69070C,2024-06-09 16:37:04,12320,14.46578733,0.0022475,74.0681,250.9001,329.1897,30.7941,0,999,88910,9.3247e-05,3.1e-06,0,4341001,0 SL-8 DEB,1 04084U 69070C   24161.69240755  .00000310  00000-0  93247-4 0  9993,2 04084  74.0681 250.9001 0022475 329.1897  30.7941 14.46578733889108,1969-070C,4084,7114.982,99.545,752.838,720.856,0
GENERATED VIA SPACETRACK.ORG API,18 SPCS,4084,SL-8 DEB,DEBRIS,U,69070C,2024-06-10 14:11:40,765920,14.46579236,0.0022504,74.0681,249.2246,327.342,32.6346,0,999,88923,8.8114e-05,2.92e-06,0,4341678,0 SL-8 DEB,1 04084U 69070C   24162.59144405  .00000292  00000-0  88114-4 0  9994,2 04084  74.0681 249.2246 0022504 327.3420  32.6346 14.46579236889238,1969-070C,4084,7114.98,99.545,752.857,720.834,0
GENERATED VIA SPACETRACK.ORG API,18 SPCS,4084,SL-8 DEB,DEBRIS,U,69070C,2024-06-10 15:51:15,899616,14.46579277,0.0022507,74.0681,249.0957,327.2036,32.7724,0,999,88922,8.7691e-05,2.9e-06,0,4341807,0 SL-8 DEB,1  4084U 69070C   24162.66060069  .00000290  00000-0  87691-4 0  9992,2  4084  74.0681 249.0957 0022507 327.2036  32.7724 14.46579277889225,1969-070C,4084,7114.98,99.545,752.859,720.831,0
GENERATED VIA SPACETRACK.ORG API,18 SPCS,4084,SL-8 DEB,DEBRIS,U,69070C,2024-06-10 22:29:36,426624,14.46579505,0.0022518,74.0681,248.5802,326.6422,33.3316,0,999,88928,8.8221e-05,2.92e-06,0,4341979,0 SL-8 DEB,1 04084U 69070C   24162.93722716  .00000292  00000-0  88221-4 0  9998,2 04084  74.0681 248.5802 0022518 326.6422  33.3316 14.46579505889286,1969-070C,4084,7114.979,99.545,752.866,720.823,0
GENERATED VIA SPACETRACK.ORG API,18 SPCS,4084,SL-8 DEB,DEBRIS,U,69070C,2024-06-11 13:25:52,611744,14.4657988,0.002254,74.068,247.4202,325.3328,34.636,0,999,88937,8.5551e-05,2.82e-06,0,4342306,0 SL-8 DEB,1 04084U 69070C   24163.55963671  .00000282  00000-0  85551-4 0  9996,2 04084  74.0680 247.4202 0022540 325.3328  34.6360 14.46579880889372,1969-070C,4084,7114.978,99.545,752.88,720.806,0
GENERATED VIA SPACETRACK.ORG API,18 SPCS,4084,SL-8 DEB,DEBRIS,U,69070C,2024-06-12 06:01:43,923648,14.46580123,0.0022565,74.0679,246.1312,323.918,36.0454,0,999,88947,7.4157e-05,2.41e-06,0,4343257,0 SL-8 DEB,1 04084U 69070C   24164.25120282  .00000241  00000-0  74157-4 0  9992,2 04084  74.0679 246.1312 0022565 323.9180  36.0454 14.46580123889478,1969-070C,4084,7114.977,99.545,752.897,720.787,0
GENERATED VIA SPACETRACK.ORG API,18 SPCS,4084,SL-8 DEB,DEBRIS,U,69070C,2024-06-12 15:59:14,706816,14.46580179,0.0022587,74.0679,245.3579,323.049,36.9112,0,999,88951,6.531e-05,2.09e-06,0,4343350,0 SL-8 DEB,1  4084U 69070C   24164.66614244  .00000209  00000-0  65310-4 0  9998,2  4084  74.0679 245.3579 0022587 323.0490  36.9112 14.46580179889519,1969-070C,4084,7114.977,99.545,752.913,720.771,0
GENERATED VIA SPACETRACK.ORG API,18 SPCS,4084,SL-8 DEB,DEBRIS,U,69070C,2024-06-12 15:59:14,706816,14.46580179,0.0022587,74.0679,245.3579,323.049,36.9112,0,999,88953,6.531e-05,2.09e-06,0,4343479,0 SL-8 DEB,1 04084U 69070C   24164.66614244  .00000209  00000-0  65310-4 0  9998,2 04084  74.0679 245.3579 0022587 323.0490  36.9112 14.46580179889531,1969-070C,4084,7114.977,99.545,752.913,720.771,0
GENERATED VIA SPACETRACK.ORG API,18 SPCS,4084,SL-8 DEB,DEBRIS,U,69070C,2024-06-13 13:33:51,381792,14.46580552,0.0022619,74.0678,243.6823,321.1926,38.7607,0,999,88966,5.7988e-05,1.83e-06,0,4344164,0 SL-8 DEB,1 04084U 69070C   24165.56517803  .00000183  00000-0  57988-4 0  9994,2 04084  74.0678 243.6823 0022619 321.1926  38.7607 14.46580552889660,1969-070C,4084,7114.976,99.545,752.934,720.747,0
GENERATED VIA SPACETRACK.ORG API,18 SPCS,4084,SL-8 DEB,DEBRIS,U,69070C,2024-06-13 15:13:26,510304,14.46580588,0.0022621,74.0678,243.5534,321.0541,38.8987,0,999,88967,5.7617e-05,1.81e-06,0,4344167,0 SL-8 DEB,1 04084U 69070C   24165.63433461  .00000181  00000-0  57617-4 0  9996,2 04084  74.0678 243.5534 0022621 321.0541  38.8987 14.46580588889675,1969-070C,4084,7114.976,99.545,752.935,720.746,0
GENERATED VIA SPACETRACK.ORG API,18 SPCS,4084,SL-8 DEB,DEBRIS,U,69070C,2024-06-14 14:27:38,293056,14.4658109,0.0022659,74.0677,241.749,319.0561,40.8895,0,999,88981,5.6923e-05,1.79e-06,0,4344169,0 SL-8 DEB,1 04084U 69070C   24166.60252654  .00000179  00000-0  56923-4 0  9993,2 04084  74.0677 241.7490 0022659 319.0561  40.8895 14.46581090889811,1969-070C,4084,7114.974,99.545,752.961,720.717,0
GENERATED VIA SPACETRACK.ORG API,18 SPCS,4084,SL-8 DEB,DEBRIS,U,69070C,2024-06-15 13:41:50,56800,14.46581585,0.0022691,74.0676,239.9445,317.0693,42.8693,0,999,88995,5.8534e-05,1.85e-06,0,4344172,0 SL-8 DEB,1 04084U 69070C   24167.57071825  .00000185  00000-0  58534-4 0  9996,2 04084  74.0676 239.9445 0022691 317.0693  42.8693 14.46581585889951,1969-070C,4084,7114.972,99.545,752.982,720.693,0
GENERATED VIA SPACETRACK.ORG API,18 SPCS,4084,SL-8 DEB,DEBRIS,U,69070C,2024-06-15 21:59:45,674304,14.46581781,0.0022705,74.0676,239.3001,316.3704,43.5658,0,999,89000,5.8915e-05,1.86e-06,0,4344173,0 SL-8 DEB,1 04084U 69070C   24167.91650086  .00000186  00000-0  58915-4 0  9990,2 04084  74.0676 239.3001 0022705 316.3704  43.5658 14.46581781890009,1969-070C,4084,7114.972,99.545,752.991,720.682,0
GENERATED VIA SPACETRACK.ORG API,18 SPCS,4084,SL-8 DEB,DEBRIS,U,69070C,2024-06-16 14:35:36,928320,14.46582063,0.002272,74.0675,238.0112,314.9639,44.9677,0,999,89010,6.0387e-05,1.91e-06,0,4344175,0 SL-8 DEB,1 04084U 69070C   24168.60806630  .00000191  00000-0  60387-4 0  9997,2 04084  74.0675 238.0112 0022720 314.9639  44.9677 14.46582063890106,1969-070C,4084,7114.971,99.545,753.001,720.671,0
GENERATED VIA SPACETRACK.ORG API,18 SPCS,4084,SL-8 DEB,DEBRIS,U,69070C,2024-06-16 21:13:57,423360,14.46582168,0.0022733,74.0674,237.4956,314.4014,45.5283,0,999,89014,5.9597e-05,1.88e-06,0,4344176,0 SL-8 DEB,1 04084U 69070C   24168.88469240  .00000188  00000-0  59597-4 0  9996,2 04084  74.0674 237.4956 0022733 314.4014  45.5283 14.46582168890140,1969-070C,4084,7114.97,99.545,753.01,720.661,0
GENERATED VIA SPACETRACK.ORG API,18 SPCS,4084,SL-8 DEB,DEBRIS,U,69070C,2024-06-17 13:49:48,658368,14.46582375,0.0022753,74.0674,236.2067,312.9903,46.9348,0,999,89024,5.6282e-05,1.76e-06,0,4344470,0 SL-8 DEB,1 04084U 69070C   24169.57625762  .00000176  00000-0  56282-4 0  9991,2 04084  74.0674 236.2067 0022753 312.9903  46.9348 14.46582375890240,1969-070C,4084,7114.97,99.545,753.024,720.646,0
GENERATED VIA SPACETRACK.ORG API,18 SPCS,4084,SL-8 DEB,DEBRIS,U,69070C,2024-06-18 14:43:35,492736,14.46582724,0.0022783,74.0673,234.2733,310.8736,49.0448,0,999,89039,5.3888e-05,1.68e-06,0,4345144,0 SL-8 DEB,1 04084U 69070C   24170.61360524  .00000168  00000-0  53888-4 0  9990,2 04084  74.0673 234.2733 0022783 310.8736  49.0448 14.46582724890390,1969-070C,4084,7114.969,99.545,753.044,720.624,0
GENERATED VIA SPACETRACK.ORG API,18 SPCS,4084,SL-8 DEB,DEBRIS,U,69070C,2024-06-18 21:21:55,977408,14.46582828,0.0022792,74.0673,233.7577,310.3221,49.5946,0,999,89043,5.3555e-05,1.67e-06,0,4345420,0 SL-8 DEB,1 04084U 69070C   24170.89023122  .00000167  00000-0  53555-4 0  9990,2 04084  74.0673 233.7577 0022792 310.3221  49.5946 14.46582828890432,1969-070C,4084,7114.968,99.545,753.05,720.617,0
GENERATED VIA SPACETRACK.ORG API,18 SPCS,4084,SL-8 DEB,DEBRIS,U,69070C,2024-06-19 05:39:51,583680,14.4658293,0.0022795,74.0672,233.1133,309.6121,50.3025,0,999,89046,5.1532e-05,1.59e-06,0,4345648,0 SL-8 DEB,1  4084U 69070C   24171.23601370  .00000159  00000-0  51532-4 0  9990,2  4084  74.0672 233.1133 0022795 309.6121  50.3025 14.46582930890461,1969-070C,4084,7114.968,99.545,753.052,720.614,0
GENERATED VIA SPACETRACK.ORG API,18 SPCS,4084,SL-8 DEB,DEBRIS,U,69070C,2024-06-19 13:57:47,186496,14.46583065,0.0022803,74.0672,232.4688,308.9016,51.0109,0,999,89053,5.275e-05,1.64e-06,0,4346095,0 SL-8 DEB,1 04084U 69070C   24171.58179614  .00000164  00000-0  52750-4 0  9998,2 04084  74.0672 232.4688 0022803 308.9016  51.0109 14.46583065890532,1969-070C,4084,7114.968,99.545,753.057,720.608,0
